Return-Path: <horizons@ssd.jpl.nasa.gov>
X-Original-To: samarthk21@iitk.ac.in
Delivered-To: samarthk21@iitk.ac.in
Received: from mail2.iitk.ac.in (mail2.iitk.ac.in [172.31.1.214])
	by newmailhost.cc.iitk.ac.in (Postfix) with ESMTPS id CA7F01A000207
	for <samarthk21@iitk.ac.in>; Sun, 30 Oct 2022 17:16:06 +0530 (IST)
Received: from mail1.iitk.ac.in (mail1.iitk.ac.in [172.31.1.216])
	(using TLSv1.2 with cipher ECDHE-RSA-AES256-GCM-SHA384 (256/256 bits))
	(No client certificate requested)
	by mail2.iitk.ac.in (Postfix) with ESMTPS id BE90C1800078
	for <samarthk21@iitk.ac.in>; Sun, 30 Oct 2022 17:16:06 +0530 (IST)
X-ASG-Debug-ID: 1667130360-16ed5e118ecfa120001-F8Q8oN
Received: from mx0f-0020b901.pphosted.com (mx0f-0020b901.pphosted.com [67.231.155.103]) by mail1.iitk.ac.in with ESMTP id zRB82HGCM47VDdKF (version=TLSv1.2 cipher=ECDHE-RSA-AES256-GCM-SHA384 bits=256 verify=NO) for <samarthk21@iitk.ac.in>; Sun, 30 Oct 2022 17:16:02 +0530 (IST)
X-Barracuda-Envelope-From: horizons@ssd.jpl.nasa.gov
X-Barracuda-Effective-Source-IP: mx0f-0020b901.pphosted.com[67.231.155.103]
X-Barracuda-Apparent-Source-IP: 67.231.155.103
Received: from pps.filterd (m0196084.ppops.net [127.0.0.1])
	by mx0e-0020b901.pphosted.com (8.16.1.2/8.16.1.2) with SMTP id 29UBdWUS015552
	for <samarthk21@iitk.ac.in>; Sun, 30 Oct 2022 11:46:00 GMT
Received: from mail.jpl.nasa.gov (smtp.jpl.nasa.gov [128.149.137.103])
	by mx0e-0020b901.pphosted.com with ESMTP id 3kgux5b3t2-1
	(version=TLSv1.2 cipher=ECDHE-RSA-AES256-GCM-SHA384 bits=256 verify=NOT)
	for <samarthk21@iitk.ac.in>; Sun, 30 Oct 2022 11:46:00 +0000
Received: from ssd.jpl.nasa.gov (ssd.jpl.nasa.gov [137.78.251.144])
	by smtp.jpl.nasa.gov (Sentrion-MTA-4.5.6/Sentrion-MTA-4.5.6) with ESMTP id 29UBjxUL122784
	for <samarthk21@iitk.ac.in>; Sun, 30 Oct 2022 11:45:59 GMT
Received: by ssd.jpl.nasa.gov (Postfix, from userid 800)
	id 385A2C0050; Sun, 30 Oct 2022 04:45:59 -0700 (PDT)
Subject: [Horizons] MAJOR BODY #C(500@10)_T(299) (1/1)
X-Loop: horizons@ssd.jpl.nasa.gov
X-ASG-Orig-Subj: [Horizons] MAJOR BODY #C(500@10)_T(299) (1/1)
Message-Id: <20221030114559.385A2C0050@ssd.jpl.nasa.gov>
Date: Sun, 30 Oct 2022 04:45:59 -0700 (PDT)
From: horizons@ssd.jpl.nasa.gov (Horizons Ephemeris System)
X-Source-IP: ssd.jpl.nasa.gov [137.78.251.144]
X-Source-Sender: horizons@ssd.jpl.nasa.gov
X-AUTH: Authorized
X-Proofpoint-GUID: PZcFOlFPhvZCVZ0N_gMKCZ6zo2kxcs7N
X-Proofpoint-ORIG-GUID: PZcFOlFPhvZCVZ0N_gMKCZ6zo2kxcs7N
X-Proofpoint-Virus-Version: vendor=fsecure engine=2.50.10434:6.0.545,18.0.895
 definitions=2022-10-30_05:2022-10-26,2022-10-30 signatures=0
X-Proofpoint-Spam-Reason: safe
X-Barracuda-Connect: mx0f-0020b901.pphosted.com[67.231.155.103]
X-Barracuda-Start-Time: 1667130362
X-Barracuda-Encrypted: ECDHE-RSA-AES256-GCM-SHA384
X-Barracuda-URL: https://mail1.iitk.ac.in:443/cgi-mod/mark.cgi
X-Virus-Scanned: by bsmtpd at iitk.ac.in
X-Barracuda-Scan-Msg-Size: 6140
X-Barracuda-BRTS-Status: 1
X-Barracuda-Spam-Score: 1.22
X-Barracuda-Spam-Status: No, SCORE=1.22 using global scores of TAG_LEVEL=3.5 QUARANTINE_LEVEL=1000.0 KILL_LEVEL=6.0 tests=BSF_SC0_MISMATCH_TO, EMPTY_TO_HEADER, MISSING_HEADERS, MISSING_HEADERS_2, TO_CC_NONE
X-Barracuda-Spam-Report: Code version 3.2, rules version 3.2.3.101783
	Rule breakdown below
	 pts rule name              description
	---- ---------------------- --------------------------------------------------
	0.01 EMPTY_TO_HEADER        Custom rule EMPTY_TO_HEADER
	0.00 MISSING_HEADERS        Missing To: header
	1.21 MISSING_HEADERS_2      Missing To: header
	0.00 BSF_SC0_MISMATCH_TO    Envelope rcpt doesn't match header
	0.00 TO_CC_NONE             No To: or Cc: header

 Automated mail xmit by MAIL_REQUEST, PID= 2156 Sun Oct 30 04:45:59 2022
++++++++++++++++++++++++++++++++ (part 1 of 1)  +++++++++++++++++++++++++++++++
*******************************************************************************
 Revised: April 12, 2021                Venus                           299 / 2
 
 PHYSICAL DATA (updated 2020-Oct-19):
  Vol. Mean Radius (km) =  6051.84+-0.01 Density (g/cm^3)      =  5.204
  Mass x10^23 (kg)      =    48.685      Volume (x10^10 km^3)  = 92.843
  Sidereal rot. period  =   243.018484 d Sid. Rot. Rate (rad/s)= -0.00000029924
  Mean solar day        =   116.7490 d   Equ. gravity  m/s^2   =  8.870
  Mom. of Inertia       =     0.33       Core radius (km)      = ~3200
  Geometric Albedo      =     0.65       Potential Love # k2   = ~0.25
  GM (km^3/s^2)         = 324858.592     Equatorial Radius, Re = 6051.893 km
  GM 1-sigma (km^3/s^2) =    +-0.006     Mass ratio (Sun/Venus)= 408523.72
  Atmos. pressure (bar) =  90            Max. angular diam.    =   60.2"
  Mean Temperature (K)  = 735            Visual mag. V(1,0)    =   -4.40
  Obliquity to orbit    = 177.3 deg      Hill's sphere rad.,Rp =  167.1
  Sidereal orb. per., y =   0.61519726   Orbit speed, km/s     =   35.021
  Sidereal orb. per., d = 224.70079922   Escape speed, km/s    =   10.361
                                 Perihelion  Aphelion    Mean
  Solar Constant (W/m^2)         2759         2614       2650
  Maximum Planetary IR (W/m^2)    153         153         153
  Minimum Planetary IR (W/m^2)    153         153         153
*******************************************************************************
 
 
*******************************************************************************
Ephemeris / MAIL_REQUEST Sun Oct 30 04:45:59 2022 Pasadena, USA  / Horizons
*******************************************************************************
Target body name: Venus (299)                     {source: DE441}
Center body name: Sun (10)                        {source: DE441}
Center-site name: BODY CENTER
*******************************************************************************
Start time      : A.D. 2022-Jan-01 00:00:00.0000 TDB
Stop  time      : A.D. 2022-Jan-01 00:00:01.0000 TDB
Step-size       : 60 minutes
*******************************************************************************
Center geodetic : 0.00000000,0.00000000,0.0000000 {E-lon(deg),Lat(deg),Alt(km)}
Center cylindric: 0.00000000,0.00000000,0.0000000 {E-lon(deg),Dxy(km),Dz(km)}
Center radii    : 696000.0 x 696000.0 x 696000.0 k{Equator, meridian, pole}    
Output units    : KM-S
Output type     : GEOMETRIC cartesian states
Output format   : 3 (position, velocity, LT, range, range-rate)
Reference frame : Ecliptic of J2000.0
*******************************************************************************
JDTDB
   X     Y     Z
   VX    VY    VZ
   LT    RG    RR
*******************************************************************************
$$SOE
2459580.500000000 = A.D. 2022-Jan-01 00:00:00.0000 TDB 
 X =-1.015245425299603E+07 Y = 1.071173286555189E+08 Z = 2.056027826149240E+06
 VX=-3.498377595558839E+01 VY=-3.494391996621766E+00 VZ= 1.970760736118406E+00
 LT= 3.589717186223176E+02 RG= 1.076170138782689E+08 RR=-1.401898409121313E-01
$$EOE
*******************************************************************************
 
TIME

  Barycentric Dynamical Time ("TDB" or T_eph) output was requested. This
continuous relativistic coordinate time is equivalent to the relativistic
proper time of a clock at rest in a reference frame comoving with the
solar system barycenter but outside the system's gravity well. It is the
independent variable in the solar system relativistic equations of motion.

  TDB runs at a uniform rate of one SI second per second and is independent
of irregularities in Earth's rotation.

  Calendar dates prior to 1582-Oct-15 are in the Julian calendar system.
Later calendar dates are in the Gregorian system.

REFERENCE FRAME AND COORDINATES

  Ecliptic at the standard reference epoch

    Reference epoch: J2000.0
    X-Y plane: adopted Earth orbital plane at the reference epoch
               Note: IAU76 obliquity of 84381.448 arcseconds wrt ICRF X-Y plane
    X-axis   : ICRF
    Z-axis   : perpendicular to the X-Y plane in the directional (+ or -) sense
               of Earth's north pole at the reference epoch.

  Symbol meaning:

    JDTDB    Julian Day Number, Barycentric Dynamical Time
      X      X-component of position vector (km)
      Y      Y-component of position vector (km)
      Z      Z-component of position vector (km)
      VX     X-component of velocity vector (km/sec)                           
      VY     Y-component of velocity vector (km/sec)                           
      VZ     Z-component of velocity vector (km/sec)                           
      LT     One-way down-leg Newtonian light-time (sec)
      RG     Range; distance from coordinate center (km)
      RR     Range-rate; radial velocity wrt coord. center (km/sec)

ABERRATIONS AND CORRECTIONS

 Geometric state vectors have NO corrections or aberrations applied.

Computations by ...

    Solar System Dynamics Group, Horizons On-Line Ephemeris System
    4800 Oak Grove Drive, Jet Propulsion Laboratory
    Pasadena, CA  91109   USA

    General site: https://ssd.jpl.nasa.gov/
    Mailing list: https://ssd.jpl.nasa.gov/email_list.html
    System news : https://ssd.jpl.nasa.gov/horizons/news.html
    User Guide  : https://ssd.jpl.nasa.gov/horizons/manual.html
    Connect     : browser        https://ssd.jpl.nasa.gov/horizons/app.html#/x
                  API            https://ssd-api.jpl.nasa.gov/doc/horizons.html
                  command-line   telnet ssd.jpl.nasa.gov 6775
                  e-mail/batch   https://ssd.jpl.nasa.gov/ftp/ssd/hrzn_batch.txt
                  scripts        https://ssd.jpl.nasa.gov/ftp/ssd/SCRIPTS
    Author      : Jon.D.Giorgini@jpl.nasa.gov
*******************************************************************************
